MESON-1                 
1 59131U 24043AK  26068.90019075  .00008544  00000+0  29748-3 0  9998
2 59131  97.5469 205.2839 0009545 227.1432 132.9007 15.29893494111890
STARLINK-35159          
1 65461U 25195D   26068.70872639  .00022544  00000+0  77076-3 0  9994
2 65461  53.1613 258.3015 0001112 125.8283 234.2822 15.30208225 29991
